STARLINK-36822
1 67909U 26036F   26061.16668981 -.01459063  00000+0 -59863-2 0  9990
2 67909  42.9953 295.9121 0001670 275.0102 262.9514 15.87965026  2432
